NORAD_CAT_ID,OBJECT_NAME,OBJECT_TYPE,EPOCH,MEAN_MOTION,ECCENTRICITY,INCLINATION,RA_OF_ASC_NODE,ARG_OF_PERICENTER,MEAN_ANOMALY,BSTAR,MEAN_MOTION_DOT,MEAN_MOTION_DDOT,TLE_LINE0,TLE_LINE1,TLE_LINE2,SEMIMAJOR_AXIS,PERIOD,APOGEE,PERIGEE,DECAYED
52598.0,STARLINK-4019,PAYLOAD,2022-11-23 05:42:39,15.08832088,0.0002468,53.2192,282.1338,32.7667,327.3478,0.00017055,2.426e-05,0.0,0 STARLINK-4019,1 52598U 22052A   22327.23796153  .00002426  00000-0  17055-3 0  9997,2 52598  53.2192 282.1338 0002468  32.7667 327.3478 15.08832088 29627,6917.905,95.438,541.477,538.062,0.0
52598.0,STARLINK-4019,PAYLOAD,2022-11-23 13:39:36,15.08820821,0.0002478,53.2189,280.647,30.9013,329.2124,0.00010836,1.436e-05,0.0,0 STARLINK-4019,1 52598U 22052A   22327.56917310  .00001436  00000-0  10836-3 0  9993,2 52598  53.2189 280.6470 0002478  30.9013 329.2124 15.08820821 29675,6917.939,95.439,541.518,538.09,0.0
52598.0,STARLINK-4019,PAYLOAD,2022-11-23 21:36:31,15.08839444,0.0002456,53.2196,279.1599,25.3834,334.7279,-8.921600000000001e-05,-1.708e-05,0.0,0 STARLINK-4019,1 52598U 22052A   22327.90036915 -.00001708  00000-0 -89216-4 0  9997,2 52598  53.2196 279.1599 0002456  25.3834 334.7279 15.08839444 29722,6917.882,95.438,541.446,538.048,0.0
52598.0,STARLINK-4019,PAYLOAD,2022-11-24 05:33:27,15.08845164,0.0002532,53.2192,277.6738,26.879,333.2333,-2.8985e-05,-7.4999999999999985e-06,0.0,0 STARLINK-4019,1 52598U 22052A   22328.23156328 -.00000750  00000-0 -28985-4 0  9997,2 52598  53.2192 277.6738 0002532  26.8790 333.2333 15.08845164 29774,6917.865,95.437,541.481,537.9780000000002,0.0
52598.0,STARLINK-4019,PAYLOAD,2022-11-25 06:59:37,15.0883406,0.0002311,53.219,272.9164,33.7552,326.3587,7.0619e-05,8.36e-06,0.0,0 STARLINK-4019,1 52598U 22052A   22329.29140409  .00000836  00000-0  70619-4 0  9991,2 52598  53.2190 272.9164 0002311  33.7552 326.3587 15.08834060 29936,6917.899,95.438,541.362,538.165,0.0
52598.0,STARLINK-4019,PAYLOAD,2022-11-25 13:21:09,15.08843318,0.0002419,53.2189,271.7272,29.574,330.5389,6.63e-05,7.67e-06,0.0,0 STARLINK-4019,1 52598U 22052A   22329.55635863  .00000767  00000-0  66300-4 0  9998,2 52598  53.2189 271.7272 0002419  29.5740 330.5389 15.08843318 29979,6917.87,95.437,541.409,538.062,0.0
52598.0,STARLINK-4019,PAYLOAD,2022-11-26 13:11:55,15.08854526,0.0002531,53.2193,267.2667,28.632,331.4811,0.0001190999999999,1.608e-05,0.0,0 STARLINK-4019,1 52598U 22052A   22330.54994610  .00001608  00000-0  11910-3 0  9998,2 52598  53.2193 267.2667 0002531  28.6320 331.4811 15.08854526 30550,6917.8359999999975,95.437,541.452,537.95,0.0
52598.0,STARLINK-4019,PAYLOAD,2022-11-26 21:08:51,15.08849727,0.0002603,53.2197,265.7795,32.7956,327.3197,9.4305e-05,1.213e-05,0.0,0 STARLINK-4019,1 52598U 22052A   22330.88114761  .00001213  00000-0  94305-4 0  9998,2 52598  53.2197 265.7795 0002603  32.7956 327.3197 15.08849727 30176,6917.851,95.437,541.516,537.915,0.0
52598.0,STARLINK-4019,PAYLOAD,2022-11-27 05:05:47,15.08840178,0.0002325,53.2183,264.2907,30.0008,330.1117,1.8199e-05,1e-08,0.0,0 STARLINK-4019,1 52598U 22052A   22331.21235409  .00000001  00000-0  18199-4 0  9990,2 52598  53.2183 264.2907 0002325  30.0008 330.1117 15.08840178 30221,6917.88,95.438,541.3530000000002,538.136,0.0
52598.0,STARLINK-4019,PAYLOAD,2022-11-27 19:24:16,15.08835293,0.0002698,53.2201,261.6148,33.4648,326.6514,-0.00011577,-2.13e-05,0.0,0 STARLINK-4019,1 52598U 22052A   22331.80852292 -.00002130  00000-0 -11577-3 0  9999,2 52598  53.2201 261.6148 0002698  33.4648 326.6514 15.08835293 30313,6917.895,95.438,541.626,537.893,0.0
52598.0,STARLINK-4019,PAYLOAD,2022-11-28 04:56:34,15.0883845,0.0002595,53.2189,259.8318,33.8613,326.2544,-2.0389e-05,-6.13e-06,0.0,0 STARLINK-4019,1 52598U 22052A   22332.20595788 -.00000613  00000-0 -20389-4 0  9994,2 52598  53.2189 259.8318 0002595  33.8613 326.2544 15.08838450 30371,6917.885,95.438,541.545,537.955,0.0
52598.0,STARLINK-4019,PAYLOAD,2022-11-29 04:47:21,15.08835651,0.0002542,53.2191,255.3715,33.8461,326.2693,3.6503e-05,2.93e-06,0.0,0 STARLINK-4019,1 52598U 22052A   22333.19955677  .00000293  00000-0  36503-4 0  9997,2 52598  53.2191 255.3715 0002542  33.8461 326.2693 15.08835651 30958,6917.894,95.438,541.5169999999998,538.0,0.0
52598.0,STARLINK-4019,PAYLOAD,2022-11-29 19:05:49,15.08841766,0.0002698,53.2185,252.6959,32.634,327.4819,9.7449e-05,1.263e-05,0.0,0 STARLINK-4019,1 52598U 22052A   22333.79571258  .00001263  00000-0  97449-4 0  9996,2 52598  53.2185 252.6959 0002698  32.6340 327.4819 15.08841766 30616,6917.875,95.437,541.606,537.874,0.0
52598.0,STARLINK-4019,PAYLOAD,2022-11-30 04:38:09,15.08835566,0.0002844,53.2189,250.9127,29.8148,330.3006,-0.00010827,-2.011e-05,0.0,0 STARLINK-4019,1 52598U 22052A   22334.19316405 -.00002011  00000-0 -10827-3 0  9990,2 52598  53.2189 250.9127 0002844  29.8148 330.3006 15.08835566 30673,6917.894,95.438,541.726,537.7909999999998,0.0
52598.0,STARLINK-4019,PAYLOAD,2022-12-01 10:50:28,15.08845591,0.0002777,53.219,245.2629,30.49,329.6253,5.980100000000001e-05,6.63e-06,0.0,0 STARLINK-4019,1 52598U 22052A   22335.45171629  .00000663  00000-0  59801-4 0  9992,2 52598  53.2190 245.2629 0002777  30.4900 329.6253 15.08845591 31291,6917.863,95.437,541.649,537.807,0.0
52598.0,STARLINK-4019,PAYLOAD,2022-12-02 10:41:15,15.08837198,0.0002881,53.2191,240.803,32.4602,327.6567,0.00013257,1.822e-05,0.0,0 STARLINK-4019,1 52598U 22052A   22336.44531916  .00001822  00000-0  13257-3 0  9993,2 52598  53.2191 240.8030 0002881  32.4602 327.6567 15.08837198 31016,6917.889,95.438,541.747,537.761,0.0
52598.0,STARLINK-4019,PAYLOAD,2022-12-03 02:35:07,15.08834525,0.00029,53.2189,237.8295,31.8506,328.2661,-5.5423e-05,-1.17e-05,0.0,0 STARLINK-4019,1 52598U 22052A   22337.10772880 -.00001170  00000-0 -55423-4 0  9994,2 52598  53.2189 237.8295 0002900  31.8506 328.2661 15.08834525 31114,6917.897,95.438,541.768,537.756,0.0
52598.0,STARLINK-4019,PAYLOAD,2022-12-03 10:32:03,15.08837897,0.0002884,53.219,236.3429,33.046,327.0712,-3.743e-05,-8.84e-06,0.0,0 STARLINK-4019,1 52598U 22052A   22337.43892664 -.00000884  00000-0 -37430-4 0  9992,2 52598  53.2190 236.3429 0002884  33.0460 327.0712 15.08837897 31594,6917.887,95.438,541.747,537.757,0.0
52598.0,STARLINK-4019,PAYLOAD,2022-12-04 04:01:17,15.08836996,0.0002861,53.2192,233.0711,27.9941,332.1205,-7.991e-05,-1.56e-05,0.0,0 STARLINK-4019,1 52598U 22052A   22338.16756925 -.00001560  00000-0 -79910-4 0  9993,2 52598  53.2192 233.0711 0002861  27.9941 332.1205 15.08836996 31273,6917.89,95.438,541.734,537.775,0.0
52598.0,STARLINK-4019,PAYLOAD,2022-12-04 10:22:50,15.08840123,0.0002841,53.2191,231.8823,28.7576,331.3573,-5.221e-05,-1.119e-05,0.0,0 STARLINK-4019,1 52598U 22052A   22338.43252655 -.00001119  00000-0 -52210-4 0  9998,2 52598  53.2191 231.8823 0002841  28.7576 331.3573 15.08840123 31741,6917.88,95.438,541.71,537.78,0.0
52598.0,STARLINK-4019,PAYLOAD,2022-12-05 10:13:37,15.08839352,0.0002845,53.2189,227.4224,30.3452,329.7704,6.5064e-05,7.47e-06,0.0,0 STARLINK-4019,1 52598U 22052A   22339.42612470  .00000747  00000-0  65064-4 0  9998,2 52598  53.2189 227.4224 0002845  30.3452 329.7704 15.08839352 31468,6917.882,95.438,541.716,537.779,0.0
52598.0,STARLINK-4019,PAYLOAD,2022-12-06 11:39:47,15.0883948,0.0002733,53.2171,222.6648,28.7003,331.4139,5.1009e-05,5.23e-06,0.0,0 STARLINK-4019,1 52598U 22052A   22340.48596339  .00000523  00000-0  51009-4 0  9997,2 52598  53.2171 222.6648 0002733  28.7003 331.4139 15.08839480 31627,6917.882,95.438,541.638,537.856,0.0
52598.0,STARLINK-4019,PAYLOAD,2022-12-06 19:36:44,15.08824464,0.0003066,53.2185,221.177,13.3503,346.75699999999995,-0.0001375999999999,-2.477e-05,0.0,0 STARLINK-4019,1 52598U 22052A   22340.81718043 -.00002477  00000-0 -13760-3 0  9995,2 52598  53.2185 221.1770 0003066  13.3503 346.7570 15.08824464 32105,6917.928000000001,95.439,541.914,537.672,0.0
52598.0,STARLINK-4019,PAYLOAD,2022-12-07 16:16:45,15.08827976,0.0002762,53.2175,217.3122,25.4653,334.6475,-0.00010845,-2.014e-05,0.0,0 STARLINK-4019,1 52598U 22052A   22341.67830445 -.00002014  00000-0 -10845-3 0  9999,2 52598  53.2175 217.3122 0002762  25.4653 334.6475 15.08827976 32239,6917.917,95.438,541.693,537.871,0.0
52598.0,STARLINK-4019,PAYLOAD,2022-12-07 22:38:17,15.08834927,0.0002783,53.2177,216.1231,27.8982,332.2159,-3.8672e-05,-9.04e-06,0.0,0 STARLINK-4019,1 52598U 22052A   22341.94326027 -.00000904  00000-0 -38672-4 0  9990,2 52598  53.2177 216.1231 0002783  27.8982 332.2159 15.08834927 31846,6917.896,95.438,541.686,537.836,0.0
52598.0,STARLINK-4019,PAYLOAD,2022-12-08 08:10:36,15.08841697,0.0002771,53.2188,214.3407,33.5049,326.6118,-1.1771e-05,-4.76e-06,0.0,0 STARLINK-4019,1 52598U 22052A   22342.34069664 -.00000476  00000-0 -11771-4 0  9991,2 52598  53.2188 214.3407 0002771  33.5049 326.6118 15.08841697 32337,6917.875,95.437,541.6569999999998,537.823,0.0
52598.0,STARLINK-4019,PAYLOAD,2022-12-09 00:04:26,15.08846737,0.0002714,53.2192,211.3692,37.6191,322.4991,0.00019927,2.885e-05,0.0,0 STARLINK-4019,1 52598U 22052A   22343.00308875  .00002885  00000-0  19927-3 0  9999,2 52598  53.2192 211.3692 0002714  37.6191 322.4991 15.08846737 32002,6917.86,95.437,541.602,537.847,0.0
52598.0,STARLINK-4019,PAYLOAD,2022-12-09 20:44:30,15.08815268,0.0002522,53.2188,207.5057,37.0225,323.0941,-9.6985e-05,-1.831e-05,0.0,0 STARLINK-4019,1 52598U 22052A   22343.86424117 -.00001831  00000-0 -96985-4 0  9993,2 52598  53.2188 207.5057 0002522  37.0225 323.0941 15.08815268 32139,6917.956,95.439,541.566,538.076,0.0
52598.0,STARLINK-4019,PAYLOAD,2022-12-09 22:19:53,15.08813794,0.0002572,53.2187,207.2073,29.3841,330.7295,-7.2013e-05,-1.434e-05,0.0,0 STARLINK-4019,1 52598U 22052A   22343.93048185 -.00001434  00000-0 -72013-4 0  9993,2 52598  53.2187 207.2073 0002572  29.3841 330.7295 15.08813794 32573,6917.96,95.439,541.605,538.0459999999998,0.0
